2023-104A               
1 57424U 23104A   26065.78279804  .00015492  00000+0  48200-3 0  9993
2 57424  97.2792 135.5625 0009333 122.1915 238.0234 15.33350758146346
STARLINK-32603          
1 62072U 24217R   26068.58581748  .00055056  00000+0  18575-2 0  9999
2 62072  53.1591 194.5036 0001028 114.8827 245.2281 15.30195162 73459
